{
  "norad_id": 68668,
  "name": "STARLINK-37221",
  "history": [
    {
      "epoch": "2026-04-22T14:26:24.828864Z",
      "apogee_km": 340.8469210990497,
      "perigee_km": 339.83646190384843,
      "latitude_deg": 1.3767433179087442e-05,
      "longitude_deg": -83.5923690032276,
      "height_km": 343.02326663153036,
      "semi_major_axis_km": 6718.478691501449,
      "eccentricity": 7.52e-05,
      "inclination_deg": 97.2833,
      "raan_deg": 343.672,
      "arg_perigee_deg": 345.3025,
      "mean_anomaly_deg": 14.8219,
      "mean_motion_rev_day": 15.76508606
    }
  ]
}